COSMOS 2228             
1 22286U 92094A   25330.91211337  .00002906  00000+0  25223-3 0  9997
2 22286  82.5177 335.6794 0016413 289.9866  69.9588 14.96619455760684
SL-16 R/B               
1 22566U 93016B   25330.80257875  .00000033  00000+0  41568-4 0  9998
2 22566  71.0090  71.2741 0008169 127.6684 232.5181 14.15289040687614
COSMOS 2242             
1 22626U 93024A   25330.51664399  .00002937  00000+0  25913-3 0  9995
2 22626  82.5200   5.3503 0014892 294.4432  65.5236 14.96008229764965
SL-16 R/B               
1 22803U 93059B   25330.85114456 -.00000097  00000+0 -24238-4 0  9998
2 22803  70.9897 227.9894 0017021 359.1476   0.9616 14.17207940664962
ARIANE 40 R/B           
1 22830U 93061H   25330.76597681  .00000288  00000+0  12171-3 0  9998
2 22830  98.5095  36.5853 0009996 224.3278 135.7107 14.32785828679367
COSMOS 2278             
1 23087U 94023A   25330.62276043  .00000157  00000+0  10671-3 0  9991
2 23087  71.0559  30.7295 0009274 201.7778 158.2952 14.14349439630237
SL-16 R/B               
1 23088U 94023B   25330.57491898  .00000238  00000+0  14745-3 0  9999
2 23088  70.9994 287.4319 0001105 108.5922 251.5320 14.14992798631506
SL-16 R/B               
1 23343U 94074B   25330.65329306  .00000628  00000+0  91113-4 0  9990
2 23343  97.7220   0.5960 0006325 184.5052 287.7256 14.79262143672017
SL-16 R/B               
1 23405U 94077B   25330.87936723 -.00000242  00000+0 -99387-4 0  9998
2 23405  70.9818 208.7791 0004573 296.6484  63.4170 14.15546863601686
ARIANE 40+ R/B          
1 23561U 95021B   25330.83154757  .00000386  00000+0  13740-3 0  9991
2 23561  98.4669  38.6112 0007910  91.4812  23.5775 14.39676993604448
SL-16 R/B               
1 23705U 95058B   25330.59860234  .00000045  00000+0  47577-4 0  9996
2 23705  71.0225  36.6928 0014922 275.6295  84.3126 14.15474803553266
SL-16 R/B               
1 24298U 96051B   25330.62444694 -.00000014  00000+0  19233-4 0  9995
2 24298  70.7608  33.3949 0018883 281.3017  78.5981 14.12394294507094
